Image,verbatimCollectors,collectedBy,secondaryCollectors,recordNumber,verbatimEventDate,minimumEventDate,maximumEventDate,verbatimIdentification,latestScientificName,identifiedBy,verbatimDateIdentified,associatedTaxa,country,firstPoliticalUnit,secondPoliticalUnit,municipality,verbatimLocality,locality,habitat,verbatimElevation,verbatimCoordinates,otherCatalogNumbers,originalMethod,typeStatus,Here is the list of fields with the corresponding information,Collectors
0000_C2022783F_collage.jpg,S. Rojkowski,S. Rojkowski,N/A,394,8 Febr. 1976,1976-02-08,N/A,Pilotrichella cuspidata Broth.,Pilotrichella cuspidata,R. Ochyra,N/A,N/A,Kenya,N/A,N/A,N/A,"61 Doinyo Sapuk National Park near Thika, alt. 2270 m; epiphytic","61 Doinyo Sapuk National Park near Thika, altitude 2270 meters; epiphytic",N/A,2270 m,N/A,N/A,Typed,no type status,,
0001_C2022784F_collage.jpg,"Orthostichella ampullacea (C. Müller) B. H. Allen & Magill det. B. Allen, 2005",R. E. Magill & T. Pócs,N/A,11241,7 August 1992,1992-08-07,N/A,"Orthostichella ampullacea (C. Müller) B. H. Allen & Magill det. B. Allen, 2005",Orthostichella ampullacea,B. Allen,2005,N/A,Comoros,Anjouan,N/A,N/A,"Primary rainforest, along steep SE summit ridge of Ntringi, N of Lake Dzialandze, 2 km WSW of Dindri Village.","Primary rainforest, along steep SE summit ridge of Ntringi, N of Lake Dzialandze, 2 km WSW of Dindri Village.",Primary rainforest,1380 m,"12°12'52""S 44°25'32""E",1182891,Typed,no type status,,
0002_C2022785F_collage.jpg,S. Kojkowski,S. Kojkowski,N/A,207,9.I.1976,1976-01-09,N/A,Pilotrichella cuspidata Broth.,Pilotrichella cuspidata,R. Ochyra,N/A,N/A,Kenya,N/A,N/A,Nairobi,"Ngong Hills near Nairobi, city of Ngong, epiphytic","Ngong Hills near Nairobi, city of Ngong, epiphytic",N/A,N/A,N/A,N/A,Typed,no type status,N/A,
0003_C2022786F_collage.jpg,S. Rojkowski,S. Rojkowski,N/A,378,22 Jan. 1976,1976-01-22,N/A,Pilotrichella cuspidata Broth.,Pilotrichella cuspidata,R. Ochyra,N/A,N/A,Tanzania,Meru,N/A,N/A,"W slope of the crater rim, alt. 2700 m, epiphytic in montane rain forest","W slope of the crater rim, 2700 meters, epiphytic in montane rain forest",epiphytic in montane rain forest,alt. 2700 m,N/A,1050662,Mix of Handwritten and Typed,no type status,,
0004_C2022787F_collage.jpg,S. Rojkowski No 253,S. Rojkowski,N/A,253,"Jan. 13, 1976",1976-01-13,N/A,Pilotrichella cuspidata Broth.,Pilotrichella cuspidata,R. Ochyra,N/A,N/A,Tanzania,Ngorongoro,N/A,N/A,"Ngorongoro Crater, alt. 2500 m, epiphytic in bamboo thickets","Ngorongoro Crater, epiphytic in bamboo thickets",N/A,alt. 2500 m,N/A,1050652,Typed,no type status,,
0005_C2022788F_collage.jpg,B. H. Allen & Magill,B. H. Allen,Magill,s.n.,2005,2005-00-00,N/A,Orthostichella ampullacea (C. Müll.) B. H. Allen & Magill,Orthostichella ampullacea,B. H. Allen,N/A,N/A,United States,Missouri,N/A,N/A,Missouri Botanical Garden Herbarium (MO),Missouri Botanical Garden Herbarium,N/A,N/A,N/A,N/A,Typed,no type status,,
0006_C2022789F_collage.jpg,B. Zemanek,B. Zemanek,N/A,1050473,9. I. 1976,1976-01-09,N/A,Pilotrichella cuspidata Broth.,Pilotrichella cuspidata,R. Ochyra,N/A,N/A,Kenya,N/A,N/A,N/A,"KENYA: Ngong Hills near Nairobi, epiphytic",Ngong Hills near Nairobi,epiphytic,N/A,N/A,N/A,Typed,no type status,,
0007_C2022790F_collage.jpg,T. G. Balbo,T. G. Balbo,N/A,s.n.,18-4-1910,1910-04-18,N/A,Filochichella Poleana Berch,Orthostichella ampullacea,T. G. Balbo,N/A,N/A,Kenya,Negeri,N/A,N/A,N/A,[precise locality unknown],N/A,N/A,N/A,N/A,Handwritten,no type status,,
0008_C2022791F_collage.jpg,S. Rojkowski,S. Rojkowski,N/A,369,Jan. 22.1976,1976-01-22,N/A,Piltrichella ampullacea (C. Muell.) Jaeg.,Piltrichella ampullacea,K. Ochyra,N/A,N/A,Tanzania,Mt. Meru,N/A,N/A,"2600 m alt., W slope of the crater rim, epiphytic in montane rain forest","2600 meters altitude, west slope of the crater rim, epiphytic in montane rain forest",N/A,2600 m alt.,N/A,N/A,Mix of Handwritten and Typed,no type status,,
0009_C2022792F_collage.jpg,S. Rojkowski,S. Rojkowski,N/A,246,12 Jan. 1976,1976-01-12,N/A,Pilotrichella cuspidata Broth.,Pilotrichella cuspidata,R. Ochyra,N/A,N/A,Tanzania,Ngorongoro,N/A,N/A,"Ngorongoro Crater rim, epiphytic in bamboo thickets, alt. 2500 m","Ngorongoro Crater rim, epiphytic in bamboo thickets, altitude 2500 meters",N/A,alt. 2500 m,N/A,1050643,Typed,no type status,,
0010_C2022793F_collage.jpg,H. Inoue,H. Inoue,N/A,491,"October 31, 1974",1974-10-31,N/A,BRYOPHYTA SELECTA EXSICCATA,Pilotrichella cuspidata,Y. Hasegawa,N/A,N/A,Tanzania,N/A,N/A,N/A,Around Ngrongoro Crater,Around Ngrongoro Crater,N/A,elevation about 2000 m,N/A,N/A,Typed,no type status,,
0011_C2022794F_collage.jpg,P. R. Bothe,P. R. Bothe,N/A,s.n.,8 - XI - 1924,1924-11-08,N/A,Pilotrichella cuspidata Broth.,Pilotrichella cuspidata,P. R. Bothe,N/A,N/A,Kenya,N/A,N/A,N/A,"Kenya: Glaucere, forest","Glaucere, forest",N/A,N/A,N/A,N/A,Handwritten,no type status,,
0012_C2022795F_collage.jpg,J. Szunyoghy (No. 18/a) det. M. Bizot,J. Szunyoghy,M. Bizot,18/a,31.3.1965,1965-03-31,N/A,Orthostichella ampullacea (C. Müller) B. H. Allen & Magill,Orthostichella ampullacea,B. H. Allen & Magill,2005,N/A,Tanzania,N/A,N/A,N/A,"Africa orientalis; Tanzania, ramicola in silva crateris montis Meru. Alt. 3000 m.s.m.","Africa orientalis; Tanzania, ramicola in silva crateris montis Meru. Alt. 3000 m.s.m.",N/A,Alt. 3000 m.s.m.,N/A,N/A,Typed,no type status,,
0052_C2023112F_collage.jpg,A. Borhidi & M. Steiner,A. Borhidi,M. Steiner,86226/c,2. Nov. 1986,1986-11-02,N/A,RHYNCHOSTEGIUM HORRIDUM Broth.,Rhynchostegium horridum,H. Bednarek - R. Ochyra,1992,N/A,Tanzania,Tanga Region,N/A,N/A,"EAST USAMBARA Mts. Submontane rainforest along stream and on S slopes 0.5 km S of DEREWA village, at 780-870 m alt. Loc. 86226 Corticolous.","East Usambara Mountains, submontane rainforest along stream and on south slopes 0.5 kilometers south of Dereva village",submontane rainforest along stream and on south slopes,780-870 m alt.,5° 38',N/A,Mix of Handwritten and Typed,no type status,,
0053_C2023113F_collage.jpg,Coll.T.POCS & 1st year forestry stud.,T. Pocs,N/A,8689/E,Dat.17.6.1986,1986-06-17,N/A,RHYNCHOSTEGIUM HORRIDUM Broth.,Rhynchostegium horridum,N/A,N/A,N/A,Tanzania,Morogoro,N/A,N/A,"RHYNCHOSTEGIUM HORRIDUM Broth. Fam:Brachytheciaceae Det.R.Ochyra 1992 MERU Mts. Rain forest of the SSW slope, above MELKA SINGH sawmill at 2050-2160 m alt. Lignicolous.","Rain forest of the SSW slope, above MELKA SINGH sawmill","Rain forest of the SSW slope, above MELKA SINGH sawmill",2050-2160 m alt.,N/A,N/A,Typed,no type status,,
0054_C2023114F_collage.jpg,A. Borhidi & M. Steiner,A. Borhidi,M. Steiner,86226/c,2. Nov. 1986,1986-11-02,N/A,RHYNCHOSTEGIUM HORRIDUM Broth.,Rhynchostegium horridum,H. Bednarek - R. Ochyra,1992,N/A,Tanzania,Tanga Region,N/A,N/A,"EAST USAMBARA Mts. Submontane rainforest along stream and on S slopes 0.5 km S of DEREWA village, at 780-870 m alt. Loc. 86226 Corticolous.","East Usambara Mountains, submontane rainforest along stream and on south slopes 0.5 kilometers south of Dereva village",submontane rainforest along stream and on south slopes,780-870 m alt.,38°,N/A,Handwritten,no type status,,
0055_C2023115F_collage.jpg,Dr Dunlap,R. Dunlap,N/A,s.n.,Jan 3rd 1926,1926-01-03,N/A,Rhynchostegium megapelma (C.M.) Jaeg,Rhynchostegium megapelma,H.N. Dixon,N/A,N/A,Cameroon,N/A,N/A,N/A,"Cameroon Mountain, 5000 ft. on fallen trunk","Cameroon Mountain, 5000 feet on fallen trunk",N/A,5000 ft.,N/A,1090559,Handwritten,no type status,,
0056_C2023116F_collage.jpg,N/A,N/A,N/A,1061386,s.d.,N/A,N/A,N/A,N/A,N/A,N/A,N/A,N/A,N/A,N/A,N/A,N/A,N/A,N/A,N/A,N/A,N/A,Typed,no type status,,
0057_C2023117F_collage.jpg,"T. Husnot, à Cahan, par Athis (Orne)",T. Husnot,Athis (Orne),841,s.d.,N/A,N/A,Rhynchostegium tenellum Schp.,Rhynchostegium tenellum,N/A,N/A,N/A,France,N/A,N/A,N/A,N/A,[precise locality unknown],N/A,N/A,N/A,N/A,Handwritten,no type status,,
0058_C2023119F_collage.jpg,"T. Pócs, R. Ochyra & H. Bednarek-Ochyra",T. Pócs,R. Ochyra | H. Bednarek-Ochyra,88150/C,24-25 June 1988,1988-06-24,1988-06-25,BRYOPHYTA AFRICANA SELECTA,Rhynchostegium volkensii,R. Ochyra,N/A,N/A,Tanzania,Arusha District,N/A,N/A,"Mt. Meru, Laikinoi approach on south-west slope: subalpine Stoebe kilimanjarica bush, elev. 3,000-3,300 m; lat. 3°15'S, long. 36°44'E; on ground.","Mt. Meru, Laikinoi approach on south-west slope: subalpine Stoebe kilimanjarica bush, elevation 3,000-3,300 meters; latitude 3°15'S, longitude 36°44'E; on ground.",N/A,"3,000-3,300 m","3°15'S, long. 36°44'E",N/A,Typed,no type status,,
0059_C2023120F_collage.jpg,P. S. Balbo,P. S. Balbo,N/A,s.n.,8-5-1936,1936-05-08,N/A,Rhynchostegium Vollonii |Broth.|,Rhynchostegium Vollonii,P. S. Balbo,N/A,N/A,N/A,N/A,N/A,N/A,N/A,[precise locality unknown],N/A,N/A,N/A,C2023120F,Handwritten,no type status,,
0060_C2023121F_collage.jpg,,R. A. Dummer,N/A,4012,April 19 1919,1919-04-19,N/A,Rhynchostegium Colensoi (Broth.) Broth.,Rhynchostegium colensoi,H.N.Dixon,N/A,N/A,Uganda,N/A,N/A,N/A,"Uganda: Mulange, 4000ft","Mulange, 4000 feet",N/A,4000ft,N/A,N/A,Handwritten,no type status,,R.A.Dummer No.4012
0061_C2023122F_collage.jpg,R.A.Dummer No 4303 det. B.N.Dixon,R. A. Dummer,B. N. Dixon,4303,Sept 1919,1919-09-00,N/A,Rhynchostegium bolkense (Broth.) Broth,Rhynchostegium bolkense,B. N. Dixon,N/A,N/A,Uganda,Mulange,N/A,N/A,4000ft. Fallen log in forest,4000 feet. Fallen log in forest,N/A,4000ft,N/A,C2025122F,Handwritten,no type status,,
0062_C2023276F_collage.jpg,T. Pócs,T. Pócs,N/A,8206,14.9.91,1991-09-14,N/A,Eurhynchium africanum Herz. var. latifolia,Eurhynchium africanum var. latifolia,T. Pócs,N/A,N/A,Rwanda,N/A,N/A,N/A,Mt. Karisimbi. Senecio refractisquamatus paramo on Loc. 162 the E-slopes along trail to summit.,Mt. Karisimbi. Senecio refractisquamatus paramo on Loc. 162 the E-slopes along trail to summit.,N/A,3600 - 3900 m alt.,N/A,1121616,Mix of Handwritten and Typed,no type status,,
0063_C2023277F_collage.jpg,A. C. Crundwell,A. C. Crundwell,N/A,82,25th March 1976,1976-03-25,N/A,Eurhynchium meridionale (Schimp.) De Not.,Eurhynchium meridionale,Fred J. Hermann,N/A,N/A,Spain,Canary Islands,N/A,N/A,"Epiphytic in forest, 700 m. alt., Bailedero, Tenerife","Epiphytic in forest, 700 m. alt., Bailedero, Tenerife",N/A,700 m. alt.,N/A,N/A,Handwritten,no type status,,
0064_C2023278F_collage.jpg,Alice Carter Cook,A. Carter Cook,N/A,1128,Oct 1897,1897-10-00,N/A,Eurhynchium myosuroides (L.) Schp.,Eurhynchium myosuroides,Cruz de Taganana,N/A,N/A,Spain,Canary Islands,N/A,N/A,N/A,[precise locality unknown],N/A,N/A,N/A,466834,Typed,no type status,,
0117_C2023435F_collage.jpg,B.J.HARRIS & T.PÓCS,B. J. Harris,T. Pócs,No.6144/,29.III.1970.,1970-03-29,N/A,Racopilacene,Racopilum plicatum,M. Bizot,N/A,N/A,Tanzania,Ulanga District,N/A,N/A,"GOLOGOLO Mountains, MWANIHANA Forest Reserve near SONJO, in the KILOMBERO Valley","GOLOGOLO Mountains, MWANIHANA Forest Reserve near SONJO, in the KILOMBERO Valley","Evergreen riverian forests, on rocks",Alt.300 m.,N/A,N/A,Typed,no type status,,
0118_C2023436F_collage.jpg,C. Troll,C. Troll,N/A,4116,25 October 1933,1933-10-25,N/A,Racopilum speluncae C. Müll.,Racopilum speluncae,H. N. Dixon,N/A,N/A,Eritrea,N/A,N/A,N/A,"Mount Sabur, alt. 1200 m; on rock in moist streambed.","Mount Sabur, 1200 meters, on rock in moist streambed.",N/A,1200 m,N/A,N/A,Typed,no type status,,
0119_C2023437F_collage.jpg,T.Pócs & B.J.Harris,T. Pócs,B. J. Harris,6158,2.5.1970,1970-05-02,N/A,Cyatophorella africana (DIX.) BROTH,Cyatophorella africana,T. Pócs,N/A,N/A,Tanzania,Uluguru,N/A,N/A,"N-slope of Bondwa, forest edge above Morningside","N-slope of Bondwa, forest edge above Morningside",Wet mountain rain-forest by streamlets,1450 m,N/A,N/A,Typed,no type status,N/A,
0120_C2023438F_collage.jpg,T. Pócs,T. Pócs,N/A,6983/B,10.IV.1984,1984-04-10,N/A,Hypopterygium laricinum (Hook.) Brid.,Hypopterygium laricinum,R. Ochyra,N/A,N/A,Tanzania,Arusha,N/A,N/A,"Arusha Nat. Park. Mesic evergreen forest near Ngare Nanyuki River, alt. 1500 m, lignicolous","Arusha National Park, near Ngare Nanyuki River, mesic evergreen forest, lignicolous",Mesic evergreen forest,1500 m,N/A,N/A,Typed,no type status,,
0121_C2023439F_collage.jpg,Coll. Balfour. Ex Herb. Wm. Mitten,Balfour,Wm. Mitten,1096054,s.d.,N/A,N/A,Hypoterygium laricinum Mauritius,Hypoterygium laricinum,N/A,N/A,N/A,Mauritius,N/A,N/A,N/A,N/A,[precise locality unknown],N/A,N/A,N/A,N/A,Typed,no type status,,
0122_C2023440F_collage.jpg,"Herbier du Frère Maurice Onraedt, F. S. C. de Malonne (Belgique)",Frère M. Onraedt,N/A,1105726,19.09.1971,1971-09-19,N/A,Hypopterygium toulouanum Schimp,Hypopterygium toulouanum,Frère M. Onraedt,N/A,N/A,Belgium,N/A,N/A,N/A,sur basalte et les vieilles zacines d'une forêt élimacique - alt. ca. 700 m,on basalt and old zacines of an elimacique forest - alt. ca. 700 m,N/A,N/A,N/A,N/A,Handwritten,no type status,,
0123_C2023441F_collage.jpg,C.MUELL.,C. MUELL.,N/A,4886,2.5.1970,1970-05-02,N/A,Cryptogamae exsiccatae editae a Museo Hist. Natur. Vindobonensi,Hypopterygium viridissimum,M. Bizot,N/A,N/A,Tanzania,E-Africa,Uluguru Mts.,N/A,"N. slope of Bondwa, forest edge above Morningside, 1450 m.","N. slope of Bondwa, forest edge above Morningside, 1450 meters",Wet mountain rain forest by streamlets. On barks.,1450 m.,N/A,1031813,Typed,no type status,N/A,
0124_C2023442F_collage.jpg,"Herbier du Frère Maurice Onraedt, F.S.C. de Malonne (Belgique)",M. Onraedt,N/A,1089651,18/XII/1970,1970-12-18,N/A,BRYOPHYTES DE la Reunion. Calytrachaeeta asplenoides (Brid.) Crosby. = Eriopus asplenoides Brid.,Calytrachaeeta asplenoides,M. Onraedt,July,N/A,Belgium,N/A,N/A,N/A,"Sur blocs de basalte humide, sous bois; alt. ca. 1800m Ravine du Tremblet, W de la Fournaise","On humid basalt blocks, under trees; altitude approximately 1800 meters Ravine du Tremblet, west of La Fournaise",N/A,alt. ca. 1800m,N/A,N/A,Handwritten,no type status,,
0125_C2023443F_collage.jpg,"Herbier du Frère Maurice Onraedt, F. S. C. de Malonne (Belgique)",Frère M. Onraedt,N/A,1089652,23/12/1973,1973-12-23,N/A,Glyptiochaeta asplenoides (Brid.) Broth. c. nor. =/Griopus asplenoides Brid.,Glyptiochaeta asplenoides,Frère M. Onraedt,N/A,N/A,Belgium,N/A,N/A,N/A,Petite Plaine des Palmistes,Petite Plaine des Palmistes,"Forêt humide, sur blocs de basalte; alt. ca. 735m!",alt. ca. 735m!,N/A,N/A,Handwritten,no type status,,
0126_C2023444F_collage.jpg,"T. Pócs, H. BeNearek-Ochyr & R. Ochyra 88113/AK",T. Pócs,H. BeNearek-Ochyr | R. Ochyra,88113/AK,9 June 1988,1988-06-09,N/A,Adelothecium bogotense (Hampe) Mitt.,Adelothecium bogotense,N/A,N/A,N/A,Tanzania,N/A,N/A,N/A,"Uluguru Mts, E escarpment of the Lukwangule Plateau ca 3 km W of the village of NYINGWA in the valley of the MCETA River, elev. 2250-2300 m; on twigs of Podocarpus along stream bank close to waterfall with big boulders","Uluguru Mts, E escarpment of the Lukwangule Plateau ca 3 km W of the village of NYINGWA in the valley of the MCETA River, on twigs of Podocarpus along stream bank close to waterfall with big boulders",N/A,2250-2300 m,N/A,N/A,Typed,no type status,,
0127_C2023445F_collage.jpg,"T. Pócs, H. BeNaarek-Ochyra & R. Ochyra",T. Pócs,H. BeNaarek-Ochyra | R. Ochyra,88113/AK,June 1988,1988-06-00,N/A,Adelothecium bogotense (Hampe) Mitt.,Adelothecium bogotense,N/A,N/A,N/A,Tanzania,N/A,N/A,N/A,"Uluguru Mts, E escarpment of the LUKWANGULE PLATEAU ca 3 km W of the village of NYINGWA in the valley of MGETA RIVER, elev. 2250-2300 m; on twigs of Podocarpus along stream bank close to waterfall with big boulders","Uluguru Mts, E escarpment of the LUKWANGULE PLATEAU ca 3 km W of the village of NYINGWA in the valley of MGETA RIVER, on twigs of Podocarpus along stream bank close to waterfall with big boulders",N/A,2250-2300 m,N/A,C2023445F,Typed,no type status,,
0128_C2023509F_collage.jpg,C Troll (5895) comm Th Herzog,C. Troll,Th. Herzog,5895,V 1934,1934-05-00,N/A,Bartramia aristifolia Broth,Bartramia aristifolia,H N Dixon,N/A,N/A,Kenya,Mt Kenya,N/A,N/A,"George Valley, in fissis umbrosis humidisque, 4250 m, leg","George Valley, in fissis umbrosis humidisque, 4250 m",N/A,4250 m,N/A,1356495,Mix of Handwritten and Typed,no type status,,
0129_C2023510F_collage.jpg,R.E. Magill,R. E. Magill,N/A,4324,4 Dec 1977,1977-12-04,N/A,Bartramia hampeana C. Muell.,Bartramia hampeana,N/A,N/A,N/A,Lesotho,N/A,N/A,N/A,Sehlabathebe National Park. Hills around sandstone outcrops just E of Lodge. Moist grassland. In rock crevices.,Sehlabathebe National Park. Hills around sandstone outcrops just E of Lodge. Moist grassland. In rock crevices.,N/A,N/A,N/A,1038335,Typed,no type status,,
0179_C2070249F_collage.jpg,"Herbier du Frère Maurice Onraedt, F.S.C. de Malonne (Belgique)",H. Onraedt,N/A,1078904,03/03/1976,1976-03-03,N/A,Maeromitrium fasciculare Mitt,Maeromitrium fasciculare,H. Onraedt,N/A,N/A,Belgium,N/A,N/A,N/A,"Pour un arbre de la forêt, alt. ca. 1000m","Pour un arbre de la forêt, alt. ca. 1000m",N/A,alt. ca. 1000m,N/A,N/A,Handwritten,no type status,,
0180_C2070250F_collage.jpg,L.J. Brass & E. Myer-Drees,L. J. Brass,E. Myer-Drees,9892,Sept. 1938,1938-09-00,N/A,Macromitrium erubescens Bartr.,Macromitrium erubescens,E. B. Bartram,N/A,N/A,Papua New Guinea,New Guinea,N/A,N/A,Mt. Wilhelmina,Mt. Wilhelmina,Subalpine forest; patched on upper branches of trees,3560 m,N/A,N/A,Mix of Handwritten and Typed,N/A,,
0181_C2070251F_collage.jpg,L.J. Brass & E. Myer-Drees,L. J. Brass,E. Myer-Drees,9892,Sept. 1938,1938-09-00,N/A,Macromitrium erubescens Bartr.,Macromitrium erubescens,E. B. Bartram,N/A,N/A,Papua New Guinea,New Guinea,N/A,N/A,Mt. Wilhelmina,Mt. Wilhelmina,Subalpine forest; patched on upper branches of trees,3560 m,N/A,N/A,Typed,no type status,,
0182_C2070252F_collage.jpg,"HONSHU: Yamanashi-ken, Kita-koma-gun, Takane-cho, Kiyosato-kogen plateau, ca. 1400 m alt., on tree trunks in deciduous forest. Coll. & T. Osada & N. Suzuki, April 9, 1978; det. T. Osada.",T. Osada,N. Suzuki,1530,"April 9, 1978",1978-04-09,N/A,MUSCI JAPONICI EXSICCATI,Macromitrium comatum,T. Osada,N/A,N/A,Japan,Yamanashi,Kita-koma-gun,Takane-cho,"Kiyosato-kogen plateau, ca. 1400 m alt., on tree trunks in deciduous forest","Kiyosato-kogen plateau, on tree trunks in deciduous forest",deciduous forest,ca. 1400 m alt.,N/A,1035994,Typed,no type status,,
0183_C2070253F_collage.jpg,Tadao Kamiji,T. Kamiji,N/A,136,"August, September 1947",1947-08-00,1947-09-00,Macromitrium brachycladulum Broth. & Par.,Macromitrium brachycladulum,E. B. Bartram,N/A,N/A,Japan,Honshu,N/A,Nikko,N/A,[precise locality unknown],N/A,N/A,N/A,N/A,Typed,no type status,,
0184_C2070254F_collage.jpg,"H. M. Curran, M. L. Merritt",H. M. Curran,M. L. Merritt,8188,Nov-Dec 1907,1907-11-00,1907-12-00,Macromitrium blumei Nees,Macromitrium blumei,N/A,N/A,N/A,Philippines,Luzon,N/A,N/A,Lambales Prov.,Lambales Prov.,N/A,N/A,N/A,N/A,Handwritten,no type status,N/A,
0185_C2070255F_collage.jpg,L.J. Brass,L. J. Brass,N/A,10961,Oct. 1938,1938-10-00,N/A,Macromitrium austro-cirrosum Bartr.,Macromitrium austro-cirrosum,E. B. Bartram,N/A,N/A,Papua New Guinea,N/A,N/A,N/A,"9 km. NE. of Lake Habbema, 2800 m. camp","9 km. NE. of Lake Habbema, 2800 m. camp",Cushioned on low trees of open secondary forest on a landslip,2800 m.,N/A,N/A,Mix of Handwritten and Typed,no type status,,
0186_C2070256F_collage.jpg,L.J. Brass & E. Myer-Drees,L. J. Brass,E. Myer-Drees,10323,Sept. 1938,1938-09-00,N/A,Macromitrium Archboldii Bartr.,Macromitrium archboldii,E. B. Bartram,N/A,N/A,Papua New Guinea,N/A,N/A,N/A,subalpine forest; alt. 3800 m.,subalpine forest; altitude 3800 meters,N/A,alt. 3800 m.,N/A,N/A,Typed,no type status,,
0187_C2070257F_collage.jpg,Mary Strong Clemens 412.5,M. S. Clemens,N/A,412.5,25 April 1940,1940-04-25,N/A,Macromitrium angulatum Mitt,Macromitrium angulatum,D. H. Vitt,"Mar. 14, 1993",N/A,Papua New Guinea,Morobe,N/A,N/A,New Guinea: Morobe District,New Guinea: Morobe District,N/A,N/A,N/A,N/A,Handwritten,no type status,,
0188_C2070258F_collage.jpg,S. K. Lau,S. K. Lau,N/A,5374,Jan. 2-21 1935,1935-01-02,1935-01-21,Macromitrium nepalense (H. & G.) Schwaegr. & Schlotheimia Grevilleana Mitt.,Macromitrium nepalense,E. B. Bartram,N/A,N/A,China,Hainan,N/A,N/A,"Chim Fung Mt., Kan-en District","Chim Fung Mt., Kan-en District",N/A,N/A,N/A,1122765,Typed,no type status,,
0189_C2070259F_collage.jpg,Coll. S. K. Lau,S. K. Lau,N/A,5374,"Jan 2-31, 1935",1935-01-02,1935-01-31,Macromitrium nepalense (H. & G.) Schwaegr. & Schlotheimia Grevilleana Mitt.,Macromitrium nepalense,E. B. Bartram,N/A,N/A,China,Hainan,N/A,N/A,Chim Fung Mt. Ka-en District,Chim Fung Mt. Ka-en District,N/A,N/A,N/A,1072828,Mix of Handwritten and Typed,no type status,N/A,
0190_C2070260F_collage.jpg,Daniel H. Norris,D. H. Norris,N/A,63472,10 July 1981,1981-07-10,N/A,Macromitrium noguchianum Schultze-Motel,Macromitrium noguchianum,Dale H. Vitt,1989,N/A,Papua New Guinea,Morobe,N/A,N/A,"Morobe Prov.: Mt. Sarawaket Southern Range 6 km SSW of Iloko. In upper montane rainforest approaching moss forest along trail between Iloko and Mt. Sarawaket, alt. 2700 - 2900 m, 147 10'E, 6 18.5'S","Morobe Province, Mt. Sarawaket Southern Range, 6 km SSW of Iloko, along trail between Iloko and Mt. Sarawaket",upper montane rainforest approaching moss forest,2700 - 2900 m,"147 10'E, 6 18.5'S",1142782,Typed,no type status,,
0191_C2070261F_collage.jpg,S.Y.Cheo,S. Y. Cheo,N/A,2754,"Sept. 15, 1933",1933-09-15,N/A,"Macromitrium pilosum, Bartram, Sp. nov.",Macromitrium pilosum,E. B. Bartram,N/A,N/A,China,Kwangsi Province,N/A,N/A,"Mosses of Kwangsi Province, China","Mosses of Kwangsi Province, China",N/A,N/A,N/A,1073830,Mix of Handwritten and Typed,N/A,,
0192_C2070262F_collage.jpg,R. S. Williams,R. S. Williams,N/A,1751,"Nov. 29, 1904",1904-11-29,N/A,Macromitrium sulcatum (Hook. & Grev.) Brid.,Macromitrium sulcatum,N/A,N/A,N/A,Philippines,N/A,N/A,N/A,N/A,[precise locality unknown],N/A,N/A,N/A,N/A,Handwritten,no type status,,
0207_C2075157F_collage.jpg,"Kiushiu. Kumamoto: Kawamura, ca 100 m, near the River Kuma, on stone, leg. K. Mayebara det. A. Noguchi.",K. Mayebara,A. Noguchi,112,1. 1948,1948-01-00,N/A,Grimmia pilifera Palis,Grimmia pilifera,A. Noguchi,N/A,N/A,Japan,Kumamoto,N/A,Kawamura,"ca 100 m, near the River Kuma, on stone","near the River Kuma, on stone",N/A,ca 100 m,N/A,N/A,Typed,no type status,,
0208_C2075158F_collage.jpg,K. Mayebara,K. Mayebara,N/A,s.n.,1. 1948,1948-01-00,N/A,Gymnostomum rupestre Schleich,Gymnostomum rupestre,A. Noguchi,N/A,N/A,Japan,Kumamoto,N/A,N/A,"Koonose, ca 100 m, on calcareous rock","Koonose, 100 meters, on calcareous rock",N/A,N/A,N/A,N/A,Typed,no type status,,
0209_C2075166F_collage.jpg,"Kiushiu. Kumamoto: Hitoyoshi, ca 100 m, on rocks, leg. K. Mayebara det. A. Noguchi.",K. Mayebara,A. Noguchi,108,III. 1948,1948-03-00,N/A,Leucobryum neilgherrense C. Muell.,Leucobryum neilgherrense,C. Muell.,N/A,N/A,Japan,Kumamoto,N/A,Hitoyoshi,"Hitoyoshi, ca 100 m, on rocks","Hitoyoshi, ca 100 m, on rocks",N/A,ca 100 m,N/A,N/A,Typed,no type status,,
0210_C2075169F_collage.jpg,"Kiushiu Kumamoto: Hitoyoshi, ca 100 m, on moist rocks, leg K Mayebara det A Noguchi",K. Mayebara,A. Noguchi,s.n.,III 1948,1948-03-00,N/A,Mnium rostratum Schrad,Mnium rostratum,A. Noguchi,N/A,N/A,Japan,Kumamoto,N/A,Hitoyoshi,"ca 100 m, on moist rocks","ca 100 m, on moist rocks",N/A,ca 100 m,N/A,N/A,Typed,no type status,,
0211_C2075171F_collage.jpg,A. Noguchi,A. Noguchi,N/A,s.n.,V III. 1948,1948-03-00,N/A,Oncophorus crispifolius (Mitt.) Lindb. var. brevipes (Card.) Nog.,Oncophorus crispifolius var. brevipes,A. Noguchi,N/A,N/A,Japan,N/A,N/A,N/A,"Mt. Jinkakuji, ca 700 m, on dry rocks","Mt. Jinkakuji, ca 700 m, on dry rocks",N/A,ca 700 m,N/A,N/A,Typed,no type status,,
0212_C2075172F_collage.jpg,A. Noguchi,A. Noguchi,N/A,s.n.,1. 1948,1948-01-00,N/A,Physcomitrium eurystomum (Nees) Sendtn.,Physcomitrium eurystomum,A. Noguchi,N/A,N/A,Japan,N/A,N/A,N/A,"Kiushiu. O'ita: Uyeno, 20 m, on shady ground, leg. et det. A. Noguchi","Uyeno, 20 m, on shady ground",N/A,N/A,N/A,N/A,Typed,no type status,,
0213_C2075177F_collage.jpg,K. Mayebara,K. Mayebara,N/A,s.n.,III. 1948,1948-03-00,N/A,Rhodobryum giganteum (Hook.) Par.,Rhodobryum giganteum,A. Noguchi,N/A,N/A,Japan,Kumamoto,N/A,N/A,"Nishinomura, 160 m, on marshy ground","Nishinomura, 160 m, on marshy ground",N/A,160 m,N/A,N/A,Typed,no type status,,
0214_C2075181F_collage.jpg,S. Hattori,S. Hattori,N/A,IX. 1948,1948,1948-00-00,N/A,Weisiopsis Cardoti (Broth.) Broth.,Weisiopsis Cardoti,A. Noguchi,N/A,N/A,Japan,N/A,N/A,N/A,"Kiushiu. Miyazaki: Obi, ca 200 m, on bare bank after small landslip, in shade","Kiushiu. Miyazaki: Obi, ca 200 m, on bare bank after small landslip, in shade",N/A,ca 200 m,N/A,N/A,Typed,no type status,,
0215_C2075257F_collage.jpg,A. Noguchi & S. Hattori,A. Noguchi,S. Hattori,427,"February 17, 1952",1952-02-17,N/A,Hylocomium cavifolium Lac,Hylocomium cavifolium,A. Noguchi,N/A,N/A,Japan,Kumamoto,N/A,N/A,"On rocks, ca. 600 m., near Hitoyoshi, Kumamoto Prefecture","On rocks, ca. 600 m., near Hitoyoshi",N/A,ca. 600 m.,N/A,N/A,Typed,no type status,,
0216_C2075258F_collage.jpg,A. Noguchi & S. Hattori,A. Noguchi,S. Hattori,428,"October 20, 1954",1954-10-20,N/A,Hyophila propagulifera Broth,Hyophila propagulifera,A. Noguchi,N/A,N/A,Japan,Oita,N/A,N/A,"On sunny concrete wall, about 10 m. above sea, Oita, Oita Prefecture","On sunny concrete wall, about 10 meters above sea, Oita Prefecture",N/A,N/A,N/A,N/A,Typed,no type status,,
0217_C2075259F_collage.jpg,Coll. & det. Z. Iwatsuki,Z. Iwatsuki,N/A,429,"December 13, 1953",1953-12-13,N/A,Hypopterygium fauriei Besch.,Hypopterygium fauriei,A. Noguchi,N/A,N/A,Japan,Aichi,N/A,Miwa,On shady damp rocks sides of the Kamebuchi rivulet,On shady damp rocks sides of the Kamebuchi rivulet,N/A,N/A,N/A,N/A,Typed,no type status,,
0218_C2075260F_collage.jpg,Coll. K. Mayebara,K. Mayebara,N/A,430,"February 11, 1952",1952-02-11,N/A,Macromitrium gymnostomum Sull. et Lesq.,Macromitrium gymnostomum,A. Noguchi,N/A,N/A,Japan,Kumamoto,N/A,N/A,"On rocks, ca. 100 m. above sea, Koonose, Kumamoto Prefecture","On rocks, 100 meters above sea, Koonose",N/A,ca. 100 m. above sea,N/A,N/A,Typed,no type status,,
0219_C2075261F_collage.jpg,K. Mayebara,K. Mayebara,N/A,431,"December 25, 1951",1951-12-25,N/A,Macromitrium incurvum (Lindb.) Par.,Macromitrium incurvum,A. Noguchi,N/A,N/A,Japan,Kumamoto,N/A,Yoshio,"On exposed rocks, 60 m. above sea","On exposed rocks, 60 meters above sea",N/A,60 m. above sea,N/A,N/A,Typed,no type status,,
0220_C2088970F_collage.jpg,M.Mizutani,M. Mizutani,N/A,1270,"Oct. 6, 1973",1973-10-06,N/A,Forsstroemia trichomitria (Hedw.) Lindb. c.fr.,Forsstroemia trichomitria,Z.I.,N/A,N/A,Japan,Honshu,N/A,N/A,"Iwate-ken, Shimohei-gun, Yamada-cho, Toyomane Valley, 160 m alt., on tree trunk","Iwate-ken, Shimohei-gun, Yamada-cho, Toyomane Valley, 160 m alt., on tree trunk",N/A,160 m alt.,N/A,N/A,Typed,no type status,,
0264_C2099487F_collage.jpg,J. Atwood,J. Atwood,N/A,2023,4 Oct 1987,1987-10-04,N/A,ADELANTHACEAE Syzygiella anomala (Lindenb. & Gottsche) Steph.,Syzygiella anomala,J. Atwood,2023,N/A,Colombia,N/A,N/A,N/A,Sur de Jardin 5-10 km. Bosque muy humedo,Sur de Jardin 5-10 km. Bosque muy humedo,Bosque muy humedo,2480 m,05°32'N 075°44'W,N/A,Typed,no type status,,
0265_C2099488F_collage.jpg,"det. J. Atwood, 2022",J. Atwood,N/A,s.n.,27 Feb 2002,2002-02-27,N/A,FRULLANIACEAE Frullania brasiliensis Raddi,Frullania brasiliensis,S. P. Churchill & Luzmila Arroyo,N/A,N/A,Bolivia,Santa Cruz,Vallegrande,N/A,"Calaculo, ca. 26 km sur de Vallegrande camino a Khasamonte. Bosque montano secundario, con Podocarpus parlatorei, abundante especies de helechos.","Calaculo, ca. 26 km south of Vallegrande on the road to Khasamonte. Secondary montane forest, with Podocarpus parlatorei, abundant species of ferns.",N/A,2450 m,18°38'S 064°02'W,C2099488F,Typed,no type status,,
0266_C2099489F_collage.jpg,S. Orbán,S. Orbán,N/A,9646/BC,17 July 1996,1996-07-17,N/A,Schistochila,Schistochila,N/A,N/A,N/A,Hungary,N/A,N/A,N/A,Foret de BEBOUR. Plateau de DUVERNAY. Along the trail to CASSE DE TAKAMAKA. Montane rain forest with many tree ferns and epiphytes.,Foret de BEBOUR. Plateau de DUVERNAY. Along the trail to CASSE DE TAKAMAKA. Montane rain forest with many tree ferns and epiphytes.,Montane rain forest with many tree ferns and epiphytes.,N/A,"21°6'S, 55°35-36'E.",C2099489F,Typed,no type status,,
0267_C2099490F_collage.jpg,M. Higuchi,M. Higuchi,N/A,1250,"December 4, 2006",2006-12-04,N/A,Ricciocarpos natans (L.) Corda in Opiz,Ricciocarpos natans,M. Higuchi,N/A,N/A,Japan,Honshu,Ibaraki Prefecture,N/A,"Josso-shi, Kogai River, Fukuoka-zeki floodgate","Josso-shi, Kogai River, Fukuoka-zeki floodgate",On bare soil at dried waterway,N/A,"36°02'N, 140°01'E",C2099490F,Typed,no type status,,
0268_C2099491F_collage.jpg,T. PÓCS and A. SZABÓ,T. Pócs,A. Szabó,9886/L',24. August 1998.,1998-08-24,N/A,Schiffneriolejeunea,Schiffneriolejeunea,N/A,N/A,N/A,Madagascar,TOAMASINA Province,N/A,N/A,"Ericaceous heath on coastal white sand between AMPANGALANAS Canal and the ocean, 5 km N of ANDOVORANTO, between ANDOMBO and ANDOVOA","Ericaceous heath on coastal white sand between Ampangalanas Canal and the ocean, 5 km N of Andovoranto, between Andombo and Andovoa",Ericaceous heath on coastal white sand,N/A,"18°54.1'S, 49°7.24'E",C2099491F,Typed,no type status,,
0269_C2099492F_collage.jpg,det. Catherine Reeb 2023,Catherine Reeb,N/A,H43,11 March 1987,1987-03-11,N/A,PLAGIOCHILACEAE Plagiochila drepanophylla Sande Lac.,Plagiochila drepanophylla,Peter B. Phillipson,N/A,Mixed with P. squamulosa,Madagascar,Vakinankaratra Region,N/A,N/A,"Eastern slope of Ankaratra, west of Ambatolampy. Forest reserve in and around patch of indigenous forest.","Eastern slope of Ankaratra, west of Ambatolampy. Forest reserve in and around patch of indigenous forest.","Plant light green, growing at the base of tree trunks in dense shade.",1900 m,19°22'S 047°17'E,C2099492F,Typed,no type status,,
0270_C2099493F_collage.jpg,Laurence J. Dorr & L.C. Barnett 3355,L. J. Dorr,L. C. Barnett,3355,9 December 1984,1984-12-09,N/A,"Frullania nodulosa (Reinw., Blume & Nees) Nees",Frullania nodulosa,Catherine Reeb,2023,N/A,Madagascar,Atsinanana Region,Analalava,N/A,west of Foulpointe,west of Foulpointe,Epiphyte. Moss.,0 - 50 m,17°42'S 049°29'E,C2099493F,Typed,no type status,,
0271_C2099494F_collage.jpg,Plagiochilaceae Plagiochila repanda var. perrotiana (Steph.) Vanden Berghen det. Catherine Reeb 2023,Catherine Reeb,N/A,H43,1 Decembre 1994,1994-12-01,N/A,Plagiochila repanda var. perrotiana (Steph.) Vanden Berghen,Plagiochila repanda var. perrotiana,Catherine Reeb,N/A,N/A,Madagascar,Ihorombe Region,N/A,N/A,"Ivohibe, Ivongo, Ambatomboay. Dans la Reserve Naturelle Integrale d'Andringitra. EST du RNI. Preserver en alcool.","Ivohibe, Ivongo, Ambatomboay. Dans la Reserve Naturelle Integrale d'Andringitra. EST du RNI.",N/A,720 m,22°15'S 047°01'E,C2099494F,Typed,no type status,,
0272_C2099495F_collage.jpg,Marshall R. & Carol A. Crosby 5783,R. Marshall & A. Crosby,N/A,5783,"MAR 30, 1973",1973-03-30,N/A,Neckeraceae Porotrichum lancifrons (Hampe) Mitten,Porotrichum lancifrons,B. Allen,2005,N/A,Costa Rica,N/A,N/A,N/A,"Porrosati area. Moist valley of Rio Ciruelas at end of regional road 114, N of village of Barba. 18 km N of city center of San Jose.","Porrosati area. Moist valley of Rio Ciruelas at end of regional road 114, N of village of Barba. 18 km N of city center of San Jose.",N/A,2250 m,10°06'N 84°07'W,C2099495F,Typed,no type status,,
0273_C2099496F_collage.jpg,Bruce Allen & Ronald A. Pursell,Bruce Allen,Ronald A. Pursell,27319,August 2005,2005-08-00,N/A,316. Dichelyma capillaceum Myrin,Dichelyma capillaceum,N/A,N/A,N/A,United States,Maine,Sagadahoc County,Georgetown,"SAGADAHOC COUNTY: Town of Georgetown. Georgetown Island, Charles Pond, 0.75 miles west of Five Islands. 43°48' 50""N, 069°43' 45""W. 10 meters.","Charles Pond, 0.75 miles west of Five Islands","On rocks and sticks in depression near pond, seasonally dry.",10 meters,"43°48' 50""N, 069°43' 45""W",C2099496F,Typed,no type status,,
0274_C2099497F_collage.jpg,Marshall R. Crosby & Carol A. Crosby,Marshall R. Crosby,Carol A. Crosby,6283,24 March 1973,1973-03-24,N/A,Trichosteleum microstegium (Schimp. ex Besch.),Trichosteleum microstegium,A. Jaeger,N/A,N/A,Costa Rica,Alajuela,N/A,N/A,"Vicinity of crater of Volcán Poás, along trail from parking area to Lagoon. Ericaceous shrub vegetation. 32 km NW of N of city center of San José. Leaf cells very faintly papillose.","Vicinity of crater of Volcán Poás, along trail from parking area to Lagoon. Ericaceous shrub vegetation. 32 km NW of N of city center of San José. Leaf cells very faintly papillose.",Ericaceous shrub vegetation,2500 m,10°11'N 084°14'W,C2099497F,Typed,no type status,,
0275_C2099498F_collage.jpg,Ramiro Fonnegra G. & Dino Tuberquia,R. Fonnegra G.,D. Tuberquia,4662,22 April 1993,1993-04-22,N/A,Leptodontium ulocalyx (Müll. Hal.) Mitt.,Leptodontium ulocalyx,B. Allen,2022,N/A,Colombia,Antioquia,Belmira,N/A,"Páramo ""El Morro","Páramo ""El Morro",Crece sobre suelo en hojarasca,3130 m,06°35'N 075°32'W,C2099498F,Typed,no type status,,
0276_C2099499F_collage.jpg,A.J. Sharp & Evelyn B. Sharp,A. J. Sharp,Evelyn B. Sharp,BC-50,24 September 1964,1964-09-24,N/A,SCAPANIACEAE Scapania bolanderi Austin,Scapania bolanderi,J. Atwood,2023,N/A,Canada,British Columbia,Vancouver Island,N/A,North-facing bluffs and slopes overlooking the east end of Lake Cameron,North-facing bluffs and slopes overlooking the east end of Lake Cameron,N/A,N/A,N/A,C2099499F,Typed,no type status,,
0277_C2099500F_collage.jpg,S. P. Churchill,S. P. Churchill,N/A,17778,23 Apr 1991,1991-04-23,N/A,Leptodontium viticulosoides var. sulphureum,Leptodontium viticulosoides var. sulphureum,S. P. Churchill,N/A,N/A,Colombia,Antioquia,Belmira,N/A,"Ca. 5-10 km N de Belmira. Bosque montano medio a alto. Elev. 2445-2935 m. Con A. L. Arbelaez, J. Betancur, D. L. Echeverry & F. J. Roldaln.","Ca. 5-10 km N de Belmira. Bosque montano medio a alto. Con A. L. Arbelaez, J. Betancur, D. L. Echeverry & F. J. Roldaln.",Bosque montano medio a alto,2445-2935 m,06°41'N 075°40'W,C2099500F,Typed,no type status,,
0278_C2099501F_collage.jpg,det. W. S. Hong,W. S. Hong,N/A,9128,25 May 1977,1977-05-25,N/A,Lophocolea minor Nees,Lophocolea minor,S. P. Churchill,N/A,Plagiochila porelloides,United States,South Dakota,Lawrence County,N/A,"Black Hills. Along Iron Creek, southwest of Spearfish. Conifer-deciduous woods along creek.","Black Hills. Along Iron Creek, southwest of Spearfish. Conifer-deciduous woods along creek.",Conifer-deciduous woods along creek.,N/A,44°25'N 103°55'W,C2099501F,Typed,no type status,,
0279_C2099502F_collage.jpg,Bruce Allen & Ronald A. Pursell,Bruce Allen,Ronald A. Pursell,26880,June 2004,2004-06-00,N/A,319. Brachythecium laetum (Brid.) Schimp. in B.S.G.,Brachythecium laetum,Bruce Allen,N/A,N/A,United States,Maine,Androscoggin County,Lisbon,Along west bank of Little River near confluence with Androscoggin River,Along west bank of Little River near confluence with Androscoggin River,On talus boulders at base of cliff,N/A,"43°59' 37""N, 070°03' 05""W",C2099502F,Typed,no type status,,
0280_C2099503F_collage.jpg,R.R. Ireland & G. Bellolio,R. R. Ireland,G. Bellolio,N° 33406,"November 7, 2001",2001-11-07,N/A,Zygodon papillatus Montagne,Zygodon papillatus,R.R. Ireland,N/A,N/A,Chile,Arauco,N/A,N/A,"On tree trunk. Region VIII: Prov. Arauco. 8 km east of Tirúa, on north side of Tirúa River. Nothofagus spp. forest on steep slope.","On tree trunk. 8 km east of Tirúa, on north side of Tirúa River. Nothofagus spp. forest on steep slope.",Nothofagus spp. forest on steep slope.,190 m,"38°20'S, 73°27'W",C2099503F,Typed,no type status,,
0281_C2099504F_collage.jpg,W. D. Reese,W. D. Reese,N/A,37931A,27 Jul 1976,1976-07-27,N/A,Calymperaceae Syrrhopodon incompletus var. berteroanus (Bridel) W. D. Reese,Syrrhopodon incompletus var. berteroanus,W. D. Reese,N/A,N/A,Panama,N/A,N/A,N/A,"Serrania de Pirre, along headwaters of Rio Escucho Ruido, ca. 16 km due N of Alto de Nique.","Serrania de Pirre, along headwaters of Rio Escucho Ruido, ca. 16 km due N of Alto de Nique.",Lower montane rain forest.,1530-1550 m,N/A,C2099504F,Typed,no type status,,
0282_C2099505F_collage.jpg,"det. S. Churchill, 2006",S. Churchill,N/A,s.n.,4 Dic 2005,2005-12-04,N/A,Sematophyllum cuspidiferum Mitten,Sematophyllum cuspidiferum,"S. Churchill, D. Neill, et al.",N/A,N/A,Ecuador,El Pangui,N/A,N/A,"Región de la Cordillera del Cóndor. Cuenca del Río Tundayme, carretera al Cóndor Mirador, 7.2 km SO de Tundayme. Bosque premontano.","Cuenca del Río Tundayme, carretera al Cóndor Mirador, 7.2 km SO de Tundayme. Bosque premontano.",N/A,1150-1200 m,"03°36'48""S 78°27'47""W",C2099505F,Typed,no type status,,
0283_C2099506F_collage.jpg,R.R. Ireland & G. Bellolio,R. R. Ireland,G. Bellolio,N33528,"November 10, 2001",2001-11-10,N/A,Campylopus introflexus (Hedwig) Bridel,Campylopus introflexus,R.R. Ireland,N/A,N/A,Chile,Region VIII,Prov. Arauco,N/A,On soil bank along road,On soil bank along road,N/A,351 m,"38°02'S, 73°21'W",C2099506F,Typed,no type status,,
0284_C2099507F_collage.jpg,Bruce Allen 27366,Bruce Allen,N/A,27366,19 January 2006,2006-01-19,N/A,Polytrichaceae Polytrichum ohioense Renauld & Cardot,Polytrichum ohioense,N/A,N/A,N/A,United States,Missouri,Jefferson County,N/A,Clubmoss Hollow East Labarque Creek Watershed Pacific Quad T42N R3E Sec 9 Gorge S of old Sales Lake 3 mi W of Byrnesville,Clubmoss Hollow East Labarque Creek Watershed Pacific Quad T42N R3E Sec 9 Gorge S of old Sales Lake 3 miles W of Byrnesville,On soil in woods,N/A,"38°23'53""N 090°41'20""W",C2099507F,Typed,no type status,,
0285_C2099508F_collage.jpg,"det. J. Atwood, 2022",J. Atwood,N/A,s.n.,16 Jul 1998,1998-07-16,N/A,FRULLANIACEAE Frullania lobatohastata Steph.,Frullania lobatohastata,J. Atwood,2022,N/A,Colombia,Distrito Capital,N/A,N/A,"Páramo de Sumapaz, al lado quebrada por río Santa Rosa. Bosque de Polylepis secundario.","Páramo de Sumapaz, al lado quebrada por río Santa Rosa. Bosque de Polylepis secundario.",N/A,3500 m,04°13'N 074°11'W,C2099508F,Typed,no type status,,
0286_C2099509F_collage.jpg,S. P. Churchill & Julio C. Betancur B.,S. P. Churchill,Julio C. Betancur B.,17895,9 May 1991,1991-05-09,N/A,Ditrichum gracile (Mitt.) Kuntze,Ditrichum gracile,S. P. Churchill,1997,N/A,Colombia,Casabianca,N/A,N/A,"Cerca del Nevado del Ruiz, carretera a Murillo.","Cerca del Nevado del Ruiz, carretera a Murillo.",N/A,3885 - 3975 m,04°56'N 075°17'W,C2099509F,Typed,no type status,,
0287_C2099510F_collage.jpg,J. Atwood,J. Atwood,N/A,s.n.,25 Jun 1985,1985-06-25,N/A,TRICHOCOLEACEAE Leiomitra tomentosa (Sw.) Lindb.,Leiomitra tomentosa,J. Atwood,N/A,N/A,Colombia,Antioquia,N/A,N/A,"Piedras Blancas, ca. 16.5 km NO de Medellín. Bosque montano secundario con Quercus, continuo a plantación de Cupressus.","Piedras Blancas, ca. 16.5 km NO de Medellín. Bosque montano secundario con Quercus, continuo a plantación de Cupressus.","Hepatica sobre suelo, al lado de quebrada.",2338 m,06°15'N 075°30'W,N/A,Typed,no type status,,
0288_C2099511F_collage.jpg,"S. Churchill, 2006",S. Churchill,N/A,s.n.,17 Jul 1998,1998-07-17,N/A,Jungermanniaceae Jamesoniella rubricaulis (Nees in Martius) Grolle,Jamesoniella rubricaulis,S. Churchill,N/A,N/A,Colombia,Cundinamarca,Tausa,N/A,"Cuchilla Laguna Seca, alrededores Laguna Verde, páramo.","Cuchilla Laguna Seca, alrededores Laguna Verde, páramo.",Sobre suelo rocoso.,3800 m,05°13'N 74°02'W,C2099511F,Typed,no type status,,
0289_C2099512F_collage.jpg,Laurence J. Dorr & L.C. Barnett 3185,L. J. Dorr,L. C. Barnett,3185,02 November 1984 - 05 November 1984,1984-11-02,1984-11-05,PLAGIOCHILACEAE Plagiochila pectinata Lindenb.,Plagiochila pectinata,Catherine Reeb,2023,N/A,Madagascar,N/A,N/A,N/A,"Environs d'Andasibe-Perinet. Higher areas with Weinmannia (Cunoniaceae) + Tambourissa (Monimiaceae). Low, moist areas with Ficus (Moraceae).","Environs d'Andasibe-Perinet. Higher areas with Weinmannia + Tambourissa. Low, moist areas with Ficus","Higher areas with Weinmannia + Tambourissa. Low, moist areas with Ficus",1000 m,18°56'S 048°25'E,C2099512F,Typed,no type status,,
0290_C2099513F_collage.jpg,"Lepidolejeunea sullivantii (Gottsche) M.E. Reiner det. J. Atwood, 2022",J. Atwood,N/A,2022,23 Jul 1998,1998-07-23,N/A,"Páramo del Duende"" - Cerro Calima, ca. 60 km N de Cali. Páramo con Espeletia y arbustos.",Lepidolejeunea sullivantii,J. Atwood,2022,N/A,Colombia,Valle del Cauca,Darien,N/A,"Páramo del Duende"" - Cerro Calima, ca. 60 km N de Cali. Páramo con Espeletia y arbustos.","Páramo del Duende - Cerro Calima, ca. 60 km N de Cali. Páramo con Espeletia y arbustos.",Páramo con Espeletia y arbustos.,3320 m,"04°03'45""N 076°30'35""W",C2099513F,Typed,no type status,,
0291_C2099514F_collage.jpg,Elsa M. Zardini & P. Aquino,Elsa M. Zardini,P. Aquino,34653,14 January 1993,1993-01-14,N/A,LEUCODONTACEAE Forsstroemia coronata (Mont.) Paris,Forsstroemia coronata,B. Allen,2022,N/A,Paraguay,Central,N/A,N/A,Estero del Ypoá. Puerto Guyrati - Villa Oliva. 4.5 km S of Puerto Guyrati. Savanna and patches of forest on clay soil.,Estero del Ypoá. Puerto Guyrati - Villa Oliva. 4.5 km S of Puerto Guyrati. Savanna and patches of forest on clay soil.,Savanna and patches of forest on clay soil.,N/A,25°38'S 057°37'W,C2099514F,Typed,no type status,,
0292_C2099515F_collage.jpg,"det. J. J. Atwood, 2022",J. J. Atwood,N/A,s.n.,11 Oct 2001,2001-10-11,N/A,Porellaceae Porella crispata (Hook.) Trevis.,Porella crispata,J. J. Atwood,N/A,N/A,Bolivia,Santa Cruz,N/A,N/A,"Municipal de la Pampa Grande, Canton Pampa Grande. 16 km norte de Los Negros. Bosque de matorral.","Municipal de la Pampa Grande, Canton Pampa Grande. 16 km norte de Los Negros. Bosque de matorral.","Hepatica sobre roca, en la sombra.",1520 m,17°56'S 064°18'W,C2099515F,Typed,no type status,,
0293_C2099516F_collage.jpg,"det. B. Espinoza-Prieto, 2023",B. Espinoza-Prieto,N/A,N/A,21 November 2013,2013-11-21,N/A,"FRULLANIACEAE Frullania ecklonii (Spreng.) Gottsche, Lindenb. & Nees",Frullania ecklonii,Narel Paniagua Zambrana et al.,N/A,N/A,Peru,La Libertad,Bolivar,Uchumarca,"Chivane, subida a Conga de Yonan. Paramo quemado frecuentemente en roca caliza carstica.","Chivane, subida a Conga de Yonan. Paramo quemado frecuentemente en roca caliza carstica.",Paramo quemado frecuentemente en roca caliza carstica.,3550 m,"07°04'02""S 077°43'35""W",C2099516F,Typed,no type status,,
0294_C2099517F_collage.jpg,S. P. Churchill & Elsa R. Toapanta,S. P. Churchill,Elsa R. Toapanta,21018,07 septiembre 2001,2001-09-07,N/A,FRULLANIACEAE Frullania peruviana Gottsche,Frullania peruviana,J. Atwood,2023,N/A,Ecuador,Pichincha,N/A,N/A,"Cantón Los Bancos. Cerro Guarumos, Río Tandayapa (entre Nono y Tandayapa) Trayecto Oleoducto OCP. Bosque muy húmedo premontano. <21000-21051> 2500 - 2630 m","Cerro Guarumos, Río Tandayapa (between Nono and Tandayapa) Trayecto Oleoducto OCP",very humid premontane forest,2500 - 2630 m,00°03'S 078°38'W,N/A,Typed,no type status,,
0295_C2099518F_collage.jpg,S. Churchill & E. Jaramillo,S. Churchill,E. Jaramillo,24006,14 Nov 2005,2005-11-14,N/A,"Lejeuneaceae Taxilejeunea pterigonia (Lehmann & Lindenberg) Schiffner det. S. Churchill, 2005",Taxilejeunea pterigonia,S. Churchill,2005,N/A,Ecuador,Napo,Quijos,N/A,"Reserva Biologica Yanayacu, arriba Cosanga. Bosque montano bajo muy humedo.","Reserva Biologica Yanayacu, arriba Cosanga. Bosque montano bajo muy humedo.",Bosque montano bajo muy humedo.,2000-2100 m,"00°36'16""S 77°53'16""W",C2099518F,Typed,no type status,,
0296_C2099519F_collage.jpg,"det. J. Atwood, 2021",J. Atwood,N/A,22616,21 May 2003,2003-05-21,N/A,FRULLANIACEAE Frullania brasiliensis Raddi,Frullania brasiliensis,S. P. Churchill & et al.,N/A,N/A,Bolivia,Cochabamba,Carrasco,N/A,Serranía Siberia. Ca. 11 km oeste de El Churo. Bosque montano nublado.,Serranía Siberia. Ca. 11 km oeste de El Churo. Bosque montano nublado.,"Hepática sobre ramas de arbusto, en el sol.",2740 m,17°45'S 064°48'W,C2099519F,Typed,no type status,,
